STARLINK-1724
1 16375C 20062BD  21326.14638035  .00004127  00000-0  27661-3 0  3262
2 16375  53.0507 173.0845 0001828  75.2935 228.8205 15.06378576    11
